{
  "type": "FeatureCollection",
  "features": [
    {
      "type": "Feature",
      "properties": {
        "norad_id": 24946,
        "name": "IRIDIUM 33",
        "group": "iridium-33-debris",
        "lat": -76.34501792502499,
        "lon": 46.780315603275234,
        "alt_km": 786.4339619928369,
        "timestamp": "2025-12-27T21:25:02.900544+00:00",
        "meta_object_name": "IRIDIUM 33",
        "meta_object_id": "1997-051C",
        "meta_epoch": "2025-12-27T10:03:40.428288",
        "meta_mean_motion": 14.3504753,
        "meta_eccentricity": 0.0008742,
        "meta_inclination": 86.3857,
        "meta_ra_of_asc_node": 62.0591,
        "meta_arg_of_pericenter": 153.7096,
        "meta_mean_anomaly": 206.4545,
        "meta_ephemeris_type": 0,
        "meta_classification_type": "U",
        "meta_norad_cat_id": 24946,
        "meta_element_set_no": 999,
        "meta_rev_at_epoch": 48045,
        "meta_bstar": 0.00012364,
        "meta_mean_motion_dot": 3.72e-06,
        "meta_mean_motion_ddot": 0,
        "tle_line1": "1 24946U 97051C   25361.41921792  .00000372  00000+0  12364-3 0  9999",
        "tle_line2": "2 24946  86.3857  62.0591 0008742 153.7096 206.4545 14.35047530480458"
      },
      "geometry": {
        "type": "Point",
        "coordinates": [
          46.780315603275234,
          -76.34501792502499
        ]
      }
    },
    {
      "type": "Feature",
      "properties": {
        "norad_id": 33773,
        "name": "IRIDIUM 33 DEB",
        "group": "iridium-33-debris",
        "lat": -31.724886192264748,
        "lon": 51.9367052945474,
        "alt_km": 760.4661980361598,
        "timestamp": "2025-12-27T21:25:02.900593+00:00",
        "meta_object_name": "IRIDIUM 33 DEB",
        "meta_object_id": "1997-051L",
        "meta_epoch": "2025-12-27T04:55:31.304352",
        "meta_mean_motion": 14.43287164,
        "meta_eccentricity": 0.0013364,
        "meta_inclination": 86.3996,
        "meta_ra_of_asc_node": 54.4587,
        "meta_arg_of_pericenter": 105.064,
        "meta_mean_anomaly": 255.2041,
        "meta_ephemeris_type": 0,
        "meta_classification_type": "U",
        "meta_norad_cat_id": 33773,
        "meta_element_set_no": 999,
        "meta_rev_at_epoch": 88556,
        "meta_bstar": 0.00032311,
        "meta_mean_motion_dot": 1.109e-05,
        "meta_mean_motion_ddot": 0,
        "tle_line1": "1 33773U 97051L   25361.20522343  .00001109  00000+0  32311-3 0  9996",
        "tle_line2": "2 33773  86.3996  54.4587 0013364 105.0640 255.2041 14.43287164885563"
      },
      "geometry": {
        "type": "Point",
        "coordinates": [
          51.9367052945474,
          -31.724886192264748
        ]
      }
    },
    {
      "type": "Feature",
      "properties": {
        "norad_id": 33775,
        "name": "IRIDIUM 33 DEB",
        "group": "iridium-33-debris",
        "lat": -45.50855448616197,
        "lon": 39.37051775003416,
        "alt_km": 770.3515636940747,
        "timestamp": "2025-12-27T21:25:02.900610+00:00",
        "meta_object_name": "IRIDIUM 33 DEB",
        "meta_object_id": "1997-051N",
        "meta_epoch": "2025-12-27T11:52:15.276000",
        "meta_mean_motion": 14.41500155,
        "meta_eccentricity": 0.0015407,
        "meta_inclination": 86.3623,
        "meta_ra_of_asc_node": 43.2532,
        "meta_arg_of_pericenter": 111.0238,
        "meta_mean_anomaly": 300.6203,
        "meta_ephemeris_type": 0,
        "meta_classification_type": "U",
        "meta_norad_cat_id": 33775,
        "meta_element_set_no": 999,
        "meta_rev_at_epoch": 88353,
        "meta_bstar": 0.00035939,
        "meta_mean_motion_dot": 1.188e-05,
        "meta_mean_motion_ddot": 0,
        "tle_line1": "1 33775U 97051N   25361.49462125  .00001188  00000+0  35939-3 0  9996",
        "tle_line2": "2 33775  86.3623  43.2532 0015407 111.0238 300.6203 14.41500155883534"
      },
      "geometry": {
        "type": "Point",
        "coordinates": [
          39.37051775003416,
          -45.50855448616197
        ]
      }
    },
    {
      "type": "Feature",
      "properties": {
        "norad_id": 33776,
        "name": "IRIDIUM 33 DEB",
        "group": "iridium-33-debris",
        "lat": 7.659028704589235,
        "lon": 74.89697304691259,
        "alt_km": 774.2617271525824,
        "timestamp": "2025-12-27T21:25:02.900625+00:00",
        "meta_object_name": "IRIDIUM 33 DEB",
        "meta_object_id": "1997-051P",
        "meta_epoch": "2025-12-27T06:39:04.912416",
        "meta_mean_motion": 14.38259855,
        "meta_eccentricity": 0.0015922,
        "meta_inclination": 86.403,
        "meta_ra_of_asc_node": 74.6707,
        "meta_arg_of_pericenter": 144.617,
        "meta_mean_anomaly": 279.6987,
        "meta_ephemeris_type": 0,
        "meta_classification_type": "U",
        "meta_norad_cat_id": 33776,
        "meta_element_set_no": 999,
        "meta_rev_at_epoch": 88291,
        "meta_bstar": 0.00028581,
        "meta_mean_motion_dot": 8.89e-06,
        "meta_mean_motion_ddot": 0,
        "tle_line1": "1 33776U 97051P   25361.27714019  .00000889  00000+0  28581-3 0  9997",
        "tle_line2": "2 33776  86.4030  74.6707 0015922 144.6170 279.6987 14.38259855882918"
      },
      "geometry": {
        "type": "Point",
        "coordinates": [
          74.89697304691259,
          7.659028704589235
        ]
      }
    },
    {
      "type": "Feature",
      "properties": {
        "norad_id": 33777,
        "name": "IRIDIUM 33 DEB",
        "group": "iridium-33-debris",
        "lat": 24.16037355058428,
        "lon": 30.238454768063903,
        "alt_km": 711.003226119512,
        "timestamp": "2025-12-27T21:25:02.900638+00:00",
        "meta_object_name": "IRIDIUM 33 DEB",
        "meta_object_id": "1997-051Q",
        "meta_epoch": "2025-12-27T11:24:28.894752",
        "meta_mean_motion": 14.55715812,
        "meta_eccentricity": 0.0006611,
        "meta_inclination": 86.3777,
        "meta_ra_of_asc_node": 28.7915,
        "meta_arg_of_pericenter": 188.422,
        "meta_mean_anomaly": 171.6878,
        "meta_ephemeris_type": 0,
        "meta_classification_type": "U",
        "meta_norad_cat_id": 33777,
        "meta_element_set_no": 999,
        "meta_rev_at_epoch": 88748,
        "meta_bstar": 0.00087872,
        "meta_mean_motion_dot": 3.862e-05,
        "meta_mean_motion_ddot": 0,
        "tle_line1": "1 33777U 97051Q   25361.47533443  .00003862  00000+0  87872-3 0  9992",
        "tle_line2": "2 33777  86.3777  28.7915 0006611 188.4220 171.6878 14.55715812887480"
      },
      "geometry": {
        "type": "Point",
        "coordinates": [
          30.238454768063903,
          24.16037355058428
        ]
      }
    },
    {
      "type": "Feature",
      "properties": {
        "norad_id": 33850,
        "name": "IRIDIUM 33 DEB",
        "group": "iridium-33-debris",
        "lat": -27.6387999292096,
        "lon": 21.74281987858486,
        "alt_km": 764.8400328868402,
        "timestamp": "2025-12-27T21:25:02.900652+00:00",
        "meta_object_name": "IRIDIUM 33 DEB",
        "meta_object_id": "1997-051T",
        "meta_epoch": "2025-12-27T12:07:20.176032",
        "meta_mean_motion": 14.42185643,
        "meta_eccentricity": 0.0013399,
        "meta_inclination": 86.3408,
        "meta_ra_of_asc_node": 23.8297,
        "meta_arg_of_pericenter": 117.3157,
        "meta_mean_anomaly": 5.6543,
        "meta_ephemeris_type": 0,
        "meta_classification_type": "U",
        "meta_norad_cat_id": 33850,
        "meta_element_set_no": 999,
        "meta_rev_at_epoch": 88365,
        "meta_bstar": 0.00049402,
        "meta_mean_motion_dot": 1.647e-05,
        "meta_mean_motion_ddot": 0,
        "tle_line1": "1 33850U 97051T   25361.50509463  .00001647  00000+0  49402-3 0  9999",
        "tle_line2": "2 33850  86.3408  23.8297 0013399 117.3157   5.6543 14.42185643883652"
      },
      "geometry": {
        "type": "Point",
        "coordinates": [
          21.74281987858486,
          -27.6387999292096
        ]
      }
    },
    {
      "type": "Feature",
      "properties": {
        "norad_id": 33853,
        "name": "IRIDIUM 33 DEB",
        "group": "iridium-33-debris",
        "lat": 10.689287785838598,
        "lon": 162.4096569710287,
        "alt_km": 755.7258092975253,
        "timestamp": "2025-12-27T21:25:02.900665+00:00",
        "meta_object_name": "IRIDIUM 33 DEB",
        "meta_object_id": "1997-051W",
        "meta_epoch": "2025-12-27T10:55:48.364896",
        "meta_mean_motion": 13.99131757,
        "meta_eccentricity": 0.0207891,
        "meta_inclination": 86.0001,
        "meta_ra_of_asc_node": 343.3579,
        "meta_arg_of_pericenter": 190.429,
        "meta_mean_anomaly": 299.8978,
        "meta_ephemeris_type": 0,
        "meta_classification_type": "U",
        "meta_norad_cat_id": 33853,
        "meta_element_set_no": 999,
        "meta_rev_at_epoch": 85551,
        "meta_bstar": 0.0013259,
        "meta_mean_motion_dot": 2.329e-05,
        "meta_mean_motion_ddot": 0,
        "tle_line1": "1 33853U 97051W   25361.45542089  .00002329  00000+0  13259-2 0  9995",
        "tle_line2": "2 33853  86.0001 343.3579 0207891 190.4290 299.8978 13.99131757855517"
      },
      "geometry": {
        "type": "Point",
        "coordinates": [
          162.4096569710287,
          10.689287785838598
        ]
      }
    }
  ]
}